{
  "type": "FeatureCollection",
  "features": [
    {
      "type": "Feature",
      "properties": {
        "norad_id": 55973,
        "name": "TIANMU-1 03",
        "group": "weather",
        "lat": -57.23772882088112,
        "lon": 165.49938704054512,
        "alt_km": 450.986147458676,
        "timestamp": "2025-12-16T21:38:56.812101+00:00",
        "meta_object_name": "TIANMU-1 03",
        "meta_object_id": "2023-039A",
        "meta_epoch": "2025-12-16T09:25:59.654784",
        "meta_mean_motion": 15.4103284,
        "meta_eccentricity": 0.00042437,
        "meta_inclination": 97.5101,
        "meta_ra_of_asc_node": 153.1465,
        "meta_arg_of_pericenter": 50.6578,
        "meta_mean_anomaly": 309.5044,
        "meta_ephemeris_type": 0,
        "meta_classification_type": "U",
        "meta_norad_cat_id": 55973,
        "meta_element_set_no": 999,
        "meta_rev_at_epoch": 15262,
        "meta_bstar": 0.00030273631,
        "meta_mean_motion_dot": 0.00012417,
        "meta_mean_motion_ddot": 0,
        "tle_line1": "1 55973U 23039A   25350.39305156  .00012417  00000+0  30274-3 0  9996",
        "tle_line2": "2 55973  97.5101 153.1465 0004243  50.6578 309.5044 15.41032840152622"
      },
      "geometry": {
        "type": "Point",
        "coordinates": [
          165.49938704054512,
          -57.23772882088112
        ]
      }
    },
    {
      "type": "Feature",
      "properties": {
        "norad_id": 55974,
        "name": "TIANMU-1 04",
        "group": "weather",
        "lat": 60.21031636782141,
        "lon": 139.5477405837493,
        "alt_km": 433.02871282390333,
        "timestamp": "2025-12-16T21:38:56.812111+00:00",
        "meta_object_name": "TIANMU-1 04",
        "meta_object_id": "2023-039B",
        "meta_epoch": "2025-12-16T08:55:14.862720",
        "meta_mean_motion": 15.41370853,
        "meta_eccentricity": 0.00049096,
        "meta_inclination": 97.5033,
        "meta_ra_of_asc_node": 152.3141,
        "meta_arg_of_pericenter": 45.3704,
        "meta_mean_anomaly": 314.7943,
        "meta_ephemeris_type": 0,
        "meta_classification_type": "U",
        "meta_norad_cat_id": 55974,
        "meta_element_set_no": 999,
        "meta_rev_at_epoch": 15262,
        "meta_bstar": 0.00029458836,
        "meta_mean_motion_dot": 0.00012218,
        "meta_mean_motion_ddot": 0,
        "tle_line1": "1 55974U 23039B   25350.37169980  .00012218  00000+0  29459-3 0  9990",
        "tle_line2": "2 55974  97.5033 152.3141 0004909  45.3704 314.7943 15.41370853152625"
      },
      "geometry": {
        "type": "Point",
        "coordinates": [
          139.5477405837493,
          60.21031636782141
        ]
      }
    },
    {
      "type": "Feature",
      "properties": {
        "norad_id": 55975,
        "name": "TIANMU-1 05",
        "group": "weather",
        "lat": 82.0322553071863,
        "lon": 82.91307784169463,
        "alt_km": 432.9779215024946,
        "timestamp": "2025-12-16T21:38:56.812121+00:00",
        "meta_object_name": "TIANMU-1 05",
        "meta_object_id": "2023-039C",
        "meta_epoch": "2025-12-16T08:48:15.241248",
        "meta_mean_motion": 15.4098879,
        "meta_eccentricity": 0.00042695,
        "meta_inclination": 97.508,
        "meta_ra_of_asc_node": 152.8016,
        "meta_arg_of_pericenter": 68.2866,
        "meta_mean_anomaly": 291.8835,
        "meta_ephemeris_type": 0,
        "meta_classification_type": "U",
        "meta_norad_cat_id": 55975,
        "meta_element_set_no": 999,
        "meta_rev_at_epoch": 15260,
        "meta_bstar": 0.00028174164,
        "meta_mean_motion_dot": 0.00011532,
        "meta_mean_motion_ddot": 0,
        "tle_line1": "1 55975U 23039C   25350.36684307  .00011532  00000+0  28174-3 0  9996",
        "tle_line2": "2 55975  97.5080 152.8016 0004269  68.2866 291.8835 15.40988790152603"
      },
      "geometry": {
        "type": "Point",
        "coordinates": [
          82.91307784169463,
          82.0322553071863
        ]
      }
    },
    {
      "type": "Feature",
      "properties": {
        "norad_id": 55976,
        "name": "TIANMU-1 06",
        "group": "weather",
        "lat": 49.183104919110825,
        "lon": 145.0353019334548,
        "alt_km": 434.42284728667255,
        "timestamp": "2025-12-16T21:38:56.812182+00:00",
        "meta_object_name": "TIANMU-1 06",
        "meta_object_id": "2023-039D",
        "meta_epoch": "2025-12-16T08:58:12.232416",
        "meta_mean_motion": 15.41422235,
        "meta_eccentricity": 0.00045711,
        "meta_inclination": 97.509,
        "meta_ra_of_asc_node": 153.2769,
        "meta_arg_of_pericenter": 62.9899,
        "meta_mean_anomaly": 297.1814,
        "meta_ephemeris_type": 0,
        "meta_classification_type": "U",
        "meta_norad_cat_id": 55976,
        "meta_element_set_no": 999,
        "meta_rev_at_epoch": 15262,
        "meta_bstar": 0.00028559303,
        "meta_mean_motion_dot": 0.00011861,
        "meta_mean_motion_ddot": 0,
        "tle_line1": "1 55976U 23039D   25350.37375269  .00011861  00000+0  28559-3 0  9994",
        "tle_line2": "2 55976  97.5090 153.2769 0004571  62.9899 297.1814 15.41422235152624"
      },
      "geometry": {
        "type": "Point",
        "coordinates": [
          145.0353019334548,
          49.183104919110825
        ]
      }
    },
    {
      "type": "Feature",
      "properties": {
        "norad_id": 56232,
        "name": "FENGYUN 3G",
        "group": "weather",
        "lat": -9.588304166016504,
        "lon": -162.18672787267886,
        "alt_km": 413.43348004201835,
        "timestamp": "2025-12-16T21:38:56.812196+00:00",
        "meta_object_name": "FENGYUN 3G",
        "meta_object_id": "2023-055A",
        "meta_epoch": "2025-12-16T07:48:46.873728",
        "meta_mean_motion": 15.5386523,
        "meta_eccentricity": 0.00093614,
        "meta_inclination": 49.9928,
        "meta_ra_of_asc_node": 208.9479,
        "meta_arg_of_pericenter": 164.9135,
        "meta_mean_anomaly": 195.2114,
        "meta_ephemeris_type": 0,
        "meta_classification_type": "U",
        "meta_norad_cat_id": 56232,
        "meta_element_set_no": 999,
        "meta_rev_at_epoch": 15158,
        "meta_bstar": 0.00036515703,
        "meta_mean_motion_dot": 0.00023611,
        "meta_mean_motion_ddot": 0,
        "tle_line1": "1 56232U 23055A   25350.32554252  .00023611  00000+0  36516-3 0  9992",
        "tle_line2": "2 56232  49.9928 208.9479 0009361 164.9135 195.2114 15.53865230151589"
      },
      "geometry": {
        "type": "Point",
        "coordinates": [
          -162.18672787267886,
          -9.588304166016504
        ]
      }
    },
    {
      "type": "Feature",
      "properties": {
        "norad_id": 57166,
        "name": "METEOR-M2 3",
        "group": "weather",
        "lat": -26.582458481590646,
        "lon": 48.73068160662118,
        "alt_km": 814.9862161045712,
        "timestamp": "2025-12-16T21:38:56.812207+00:00",
        "meta_object_name": "METEOR-M2 3",
        "meta_object_id": "2023-091A",
        "meta_epoch": "2025-12-16T08:17:04.516224",
        "meta_mean_motion": 14.24026496,
        "meta_eccentricity": 0.00036992,
        "meta_inclination": 98.6376,
        "meta_ra_of_asc_node": 43.8215,
        "meta_arg_of_pericenter": 358.311,
        "meta_mean_anomaly": 1.8056,
        "meta_ephemeris_type": 0,
        "meta_classification_type": "U",
        "meta_norad_cat_id": 57166,
        "meta_element_set_no": 999,
        "meta_rev_at_epoch": 12849,
        "meta_bstar": 2.500434e-05,
        "meta_mean_motion_dot": 1.4e-07,
        "meta_mean_motion_ddot": 0,
        "tle_line1": "1 57166U 23091A   25350.34519116  .00000014  00000+0  25004-4 0  9994",
        "tle_line2": "2 57166  98.6376  43.8215 0003699 358.3110   1.8056 14.24026496128499"
      },
      "geometry": {
        "type": "Point",
        "coordinates": [
          48.73068160662118,
          -26.582458481590646
        ]
      }
    },
    {
      "type": "Feature",
      "properties": {
        "norad_id": 57399,
        "name": "TIANMU-1 07",
        "group": "weather",
        "lat": -79.84843433655101,
        "lon": 86.28222453103349,
        "alt_km": 492.12289764276557,
        "timestamp": "2025-12-16T21:38:56.812222+00:00",
        "meta_object_name": "TIANMU-1 07",
        "meta_object_id": "2023-101A",
        "meta_epoch": "2025-12-16T09:26:21.108768",
        "meta_mean_motion": 15.2812547,
        "meta_eccentricity": 0.00054718,
        "meta_inclination": 97.2879,
        "meta_ra_of_asc_node": 40.1628,
        "meta_arg_of_pericenter": 72.3204,
        "meta_mean_anomaly": 287.8633,
        "meta_ephemeris_type": 0,
        "meta_classification_type": "U",
        "meta_norad_cat_id": 57399,
        "meta_element_set_no": 999,
        "meta_rev_at_epoch": 13371,
        "meta_bstar": 0.00020423388,
        "meta_mean_motion_dot": 5.529e-05,
        "meta_mean_motion_ddot": 0,
        "tle_line1": "1 57399U 23101A   25350.39329987  .00005529  00000+0  20423-3 0  9999",
        "tle_line2": "2 57399  97.2879  40.1628 0005471  72.3204 287.8633 15.28125470133710"
      },
      "geometry": {
        "type": "Point",
        "coordinates": [
          86.28222453103349,
          -79.84843433655101
        ]
      }
    }
  ]
}